NORAD_CAT_ID,OBJECT_NAME,OBJECT_TYPE,EPOCH,MEAN_MOTION,ECCENTRICITY,INCLINATION,RA_OF_ASC_NODE,ARG_OF_PERICENTER,MEAN_ANOMALY,BSTAR,MEAN_MOTION_DOT,MEAN_MOTION_DDOT,TLE_LINE0,TLE_LINE1,TLE_LINE2,SEMIMAJOR_AXIS,PERIOD,APOGEE,PERIGEE,DECAYED
55408.0,STARLINK-5092,PAYLOAD,2023-12-15 03:57:57,14.98324374,0.0002793,69.9994,320.8514,267.0331,93.0509,0.00012935,1.45e-05,0.0,0 STARLINK-5092,1 55408U 23014T   23349.16524782  .00001450  00000-0  12935-3 0  9991,2 55408  69.9994 320.8514 0002793 267.0331  93.0509 14.98324374 48953,6950.21,96.107,574.016,570.134,0.0
55408.0,STARLINK-5092,PAYLOAD,2023-12-15 08:46:21,14.98327831,0.0002722,69.9994,320.3462,265.5086,94.5762,0.00016221,1.843e-05,0.0,0 STARLINK-5092,1 55408U 23014T   23349.36552501  .00001843  00000-0  16221-3 0  9991,2 55408  69.9994 320.3462 0002722 265.5086  94.5762 14.98327831 49928,6950.2,96.107,573.956,570.173,0.0
55408.0,STARLINK-5092,PAYLOAD,2023-12-16 03:59:59,14.98322047,0.0002467,70.0003,318.3271,253.4153,106.6736,7.1491e-06,-8e-08,0.0,0 STARLINK-5092,1 55408U 23014T   23350.16665530 -.00000008  00000-0  71491-5 0  9993,2 55408  70.0003 318.3271 0002467 253.4153 106.6736 14.98322047 49104,6950.217,96.108,573.797,570.368,0.0
55408.0,STARLINK-5092,PAYLOAD,2023-12-16 07:12:15,14.98322784,0.0002516,69.9999,317.9902,260.2787,99.8088,-2.01e-05,-3.33e-06,0.0,0 STARLINK-5092,1 55408U 23014T   23350.30017650 -.00000333  00000-0 -20100-4 0  9995,2 55408  69.9999 317.9902 0002516 260.2787  99.8088 14.98322784 50063,6950.215,96.107,573.829,570.332,0.0
55408.0,STARLINK-5092,PAYLOAD,2023-12-17 04:01:59,14.98332228,0.0002565,70.0002,315.8033,250.5382,109.55,-1.8588e-05,-3.15e-06,0.0,0 STARLINK-5092,1 55408U 23014T   23351.16805057 -.00000315  00000-0 -18588-4 0  9993,2 55408  70.0002 315.8033 0002565 250.5382 109.5500 14.98332228 49251,6950.186,96.107,573.834,570.268,0.0
55408.0,STARLINK-5092,PAYLOAD,2023-12-17 05:38:07,14.98332819,0.0002554,70.0002,315.6348,250.251,109.8373,-9.33e-06,-2.04e-06,0.0,0 STARLINK-5092,1 55408U 23014T   23351.23480984 -.00000204  00000-0 -93300-5 0  9992,2 55408  70.0002 315.6348 0002554 250.2510 109.8373 14.98332819 50200,6950.184,96.107,573.824,570.274,0.0
55408.0,STARLINK-5092,PAYLOAD,2023-12-18 04:03:59,14.98335094,0.0002653,69.9997,313.2771,260.1826,99.9034,0.00011772,1.312e-05,0.0,0 STARLINK-5092,1 55408U 23014T   23352.16944320  .00001312  00000-0  11772-3 0  9994,2 55408  69.9997 313.2771 0002653 260.1826  99.9034 14.98335094 49405,6950.177,96.107,573.886,570.198,0.0
55408.0,STARLINK-5092,PAYLOAD,2023-12-18 07:16:15,14.98337807,0.0002617,69.9999,312.9406,259.5527,100.5337,0.00014433,1.63e-05,0.0,0 STARLINK-5092,1 55408U 23014T   23352.30296005  .00001630  00000-0  14433-3 0  9990,2 55408  69.9999 312.9406 0002617 259.5527 100.5337 14.98337807 50364,6950.169,96.106,573.853,570.215,0.0
55408.0,STARLINK-5092,PAYLOAD,2023-12-18 21:41:29,14.98328115,0.0001922,70.0022,311.4275,227.9675,132.1321,2.8988e-05,2.53e-06,0.0,0 STARLINK-5092,1 55408U 23014T   23352.90380789  .00000253  00000-0  28988-4 0  9990,2 55408  70.0022 311.4275 0001922 227.9675 132.1321 14.98328115 50459,6950.199,96.107,573.4,570.728,0.0
55408.0,STARLINK-5092,PAYLOAD,2023-12-19 04:06:01,14.98324237,0.0002332,70.0015,310.755,241.7479,118.3445,-7.2927e-05,-9.63e-06,0.0,0 STARLINK-5092,1 55408U 23014T   23353.17085390 -.00000963  00000-0 -72927-4 0  9992,2 55408  70.0015 310.7550 0002332 241.7479 118.3445 14.98324237 49554,6950.211,96.107,573.697,570.455,0.0
55408.0,STARLINK-5092,PAYLOAD,2023-12-19 07:18:18,14.98322345,0.000234,70.0012,310.4174,247.1646,112.9266,-9.1174e-05,-1.18e-05,0.0,0 STARLINK-5092,1 55408U 23014T   23353.30437624 -.00001180  00000-0 -91174-4 0  9995,2 55408  70.0012 310.4174 0002340 247.1646 112.9266 14.98322345 50512,6950.217,96.107,573.708,570.455,0.0
55408.0,STARLINK-5092,PAYLOAD,2023-12-20 04:08:02,14.98331256,0.0002625,70.0003,308.2281,258.4414,101.6451,-7.2033e-05,-9.52e-06,0.0,0 STARLINK-5092,1 55408U 23014T   23354.17225000 -.00000952  00000-0 -72033-4 0  9993,2 55408  70.0003 308.2281 0002625 258.4414 101.6451 14.98331256 49701,6950.189,96.107,573.878,570.23,0.0
55408.0,STARLINK-5092,PAYLOAD,2023-12-20 07:20:18,14.98331865,0.0002673,70.0001,307.891,261.1717,98.9139,-6.0259e-05,-8.12e-06,0.0,0 STARLINK-5092,1 55408U 23014T   23354.30576921 -.00000812  00000-0 -60259-4 0  9991,2 55408  70.0001 307.8910 0002673 261.1717  98.9139 14.98331865 50667,6950.187,96.107,573.91,570.194,0.0
55408.0,STARLINK-5092,PAYLOAD,2023-12-20 21:45:30,14.98328453,0.0002829,69.9999,306.376,263.6066,96.4771,6.1515e-05,6.41e-06,0.0,0 STARLINK-5092,1 55408U 23014T   23354.90660770  .00000641  00000-0  61515-4 0  9997,2 55408  69.9999 306.3760 0002829 263.6066  96.4771 14.98328453 50758,6950.198,96.107,574.029,570.096,0.0
55408.0,STARLINK-5092,PAYLOAD,2023-12-21 04:10:02,14.98343009,0.0002365,69.9998,305.701,263.6062,96.4827,-0.00011746,-1.495e-05,0.0,0 STARLINK-5092,1 55408U 23014T   23355.17364389 -.00001495  00000-0 -11746-3 0  9994,2 55408  69.9998 305.7010 0002365 263.6062  96.4827 14.98343009 49854,6950.153,96.106,573.661,570.374,0.0
55408.0,STARLINK-5092,PAYLOAD,2023-12-21 05:46:10,14.98350639,0.0002396,69.9999,305.5333,263.9395,96.1491,-0.00018759,-2.332e-05,0.0,0 STARLINK-5092,1 55408U 23014T   23355.24040017 -.00002332  00000-0 -18759-3 0  9993,2 55408  69.9999 305.5333 0002396 263.9395  96.1491 14.98350639 50805,6950.129,96.106,573.659,570.329,0.0
55408.0,STARLINK-5092,PAYLOAD,2023-12-21 21:47:32,14.98325545,0.0002463,70.0022,303.8542,224.4339,135.6623,2.0508e-05,1.52e-06,0.0,0 STARLINK-5092,1 55408U 23014T   23355.90801000  .00000152  00000-0  20508-4 0  9995,2 55408  70.0022 303.8542 0002463 224.4339 135.6623 14.98325545 50908,6950.207,96.107,573.784,570.36,0.0
55408.0,STARLINK-5092,PAYLOAD,2023-12-22 04:12:04,14.98324855,0.000277,70.0007,303.1796,246.4955,113.5913,-2.6123e-05,-4.05e-06,0.0,0 STARLINK-5092,1 55408U 23014T   23356.17505354 -.00000405  00000-0 -26123-4 0  9990,2 55408  70.0007 303.1796 0002770 246.4955 113.5913 14.98324855 50005,6950.209,96.107,573.999,570.149,0.0
55408.0,STARLINK-5092,PAYLOAD,2023-12-22 05:48:12,14.983251,0.0002778,70.0007,303.0112,247.3994,112.6871,-2.1356e-05,-3.48e-06,0.0,0 STARLINK-5092,1 55408U 23014T   23356.24181309 -.00000348  00000-0 -21356-4 0  9997,2 55408  70.0007 303.0112 0002778 247.3994 112.6871 14.98325100 50958,6950.208,96.107,574.004,570.142,0.0
55408.0,STARLINK-5092,PAYLOAD,2023-12-22 21:49:33,14.98331597,0.0002714,69.9999,301.3254,257.2081,102.8774,-4.0654e-05,-5.78e-06,0.0,0 STARLINK-5092,1 55408U 23014T   23356.90941005 -.00000578  00000-0 -40654-4 0  9994,2 55408  69.9999 301.3254 0002714 257.2081 102.8774 14.98331597 51052,6950.188,96.107,573.939,570.167,0.0
55408.0,STARLINK-5092,PAYLOAD,2023-12-23 02:37:57,14.98331972,0.00028,70.0,300.8211,256.28,103.8048,-3.1068e-05,-4.64e-06,0.0,0 STARLINK-5092,1 55408U 23014T   23357.10968928 -.00000464  00000-0 -31068-4 0  9993,2 55408  70.0000 300.8211 0002800 256.2800 103.8048 14.98331972 50140,6950.187,96.107,573.998,570.106,0.0
55408.0,STARLINK-5092,PAYLOAD,2023-12-23 05:50:12,14.98336241,0.000288,69.9996,300.483,267.2369,92.8461,1.4461e-05,8e-07,0.0,0 STARLINK-5092,1 55408U 23014T   23357.24320525  .00000080  00000-0  14461-4 0  9993,2 55408  69.9996 300.4830 0002880 267.2369  92.8461 14.98336241 51101,6950.174,96.107,574.04,570.037,0.0
55408.0,STARLINK-5092,PAYLOAD,2023-12-23 21:51:34,14.98324842,0.0002972,69.9995,298.7997,266.0542,94.0277,1.4062e-05,7.5e-07,0.0,0 STARLINK-5092,1 55408U 23014T   23357.91081232  .00000075  00000-0  14062-4 0  9997,2 55408  69.9995 298.7997 0002972 266.0542  94.0277 14.98324842 51209,6950.209,96.107,574.139,570.008,0.0
55408.0,STARLINK-5092,PAYLOAD,2023-12-24 04:16:06,14.98329324,0.0003083,69.9991,298.1257,268.0239,92.0567,3.5853e-05,3.35e-06,0.0,0 STARLINK-5092,1 55408U 23014T   23358.17784924  .00000335  00000-0  35853-4 0  9994,2 55408  69.9991 298.1257 0003083 268.0239  92.0567 14.98329324 50307,6950.195,96.107,574.203,569.917,0.0
55408.0,STARLINK-5092,PAYLOAD,2023-12-24 05:52:13,14.98334067,0.0002992,69.9994,297.9579,265.1942,94.8876,0.00010079,1.11e-05,0.0,0 STARLINK-5092,1 55408U 23014T   23358.24460417  .00001110  00000-0  10079-3 0  9994,2 55408  69.9994 297.9579 0002992 265.1942  94.8876 14.98334067 51259,6950.18,96.107,574.125,569.966,0.0
55408.0,STARLINK-5092,PAYLOAD,2023-12-24 21:53:34,14.98332444,0.0002969,69.9996,296.2755,263.0495,97.0327,-3.5589e-05,-5.18e-06,0.0,0 STARLINK-5092,1 55408U 23014T   23358.91220834 -.00000518  00000-0 -35589-4 0  9992,2 55408  69.9996 296.2755 0002969 263.0495  97.0327 14.98332444 51357,6950.185,96.107,574.114,569.987,0.0
55408.0,STARLINK-5092,PAYLOAD,2023-12-25 05:54:14,14.98334701,0.0002768,70.0,295.4348,255.0001,105.0852,1.3376e-05,6.7e-07,0.0,0 STARLINK-5092,1 55408U 23014T   23359.24600451  .00000067  00000-0  13376-4 0  9993,2 55408  70.0000 295.4348 0002768 255.0001 105.0852 14.98334701 50468,6950.178,96.107,573.967,570.12,0.0
55408.0,STARLINK-5092,PAYLOAD,2023-12-25 20:19:27,14.98302329,0.0002408,70.0006,293.9192,261.6464,98.4422,0.00040478,4.737e-05,0.0,0 STARLINK-5092,1 55408U 23014T   23359.84685050  .00004737  00000-0  40478-3 0  9997,2 55408  70.0006 293.9192 0002408 261.6464  98.4422 14.98302329 50550,6950.278,96.109,573.817,570.47,0.0
55408.0,STARLINK-5092,PAYLOAD,2023-12-25 21:55:35,14.98323855,0.000255,70.0004,293.7516,256.7923,103.2951,3.8048e-05,3.61e-06,0.0,0 STARLINK-5092,1 55408U 23014T   23359.91361010  .00000361  00000-0  38048-4 0  9992,2 55408  70.0004 293.7516 0002550 256.7923 103.2951 14.98323855 51504,6950.212,96.107,573.849,570.305,0.0
55408.0,STARLINK-5092,PAYLOAD,2023-12-26 02:44:00,14.98325313,0.0002584,70.0002,293.246,255.8348,104.2524,-3.4318e-05,-5.02e-06,0.0,0 STARLINK-5092,1 55408U 23014T   23360.11389199 -.00000502  00000-0 -34318-4 0  9999,2 55408  70.0002 293.2460 0002584 255.8348 104.2524 14.98325313 50599,6950.207,96.107,573.868,570.276,0.0
